{
    "links": {
        "self": "http://www.neowsapp.com/rest/v1/neo/3145510?api_key=iIulBulltgU6a56xZRHN4H3l9WmuAYTsLGpBGhQ2"
    },
    "id": "3145510",
    "neo_reference_id": "3145510",
    "name": "(2003 AC1)",
    "designation": "2003 AC1",
    "nasa_jpl_url": "http://ssd.jpl.nasa.gov/sbdb.cgi?sstr=3145510",
    "absolute_magnitude_h": 20.7,
    "estimated_diameter": {
        "kilometers": {
            "estimated_diameter_min": 0.1925550782,
            "estimated_diameter_max": 0.4305662442
        },
        "meters": {
            "estimated_diameter_min": 192.5550781879,
            "estimated_diameter_max": 430.566244241
        },
        "miles": {
            "estimated_diameter_min": 0.1196481415,
            "estimated_diameter_max": 0.2675413778
        },
        "feet": {
            "estimated_diameter_min": 631.7424027221,
            "estimated_diameter_max": 1412.6189567557
        }
    },
    "is_potentially_hazardous_asteroid": false,
    "close_approach_data": [
        {
            "close_approach_date": "1926-03-19",
            "close_approach_date_full": "1926-Mar-19 14:29",
            "epoch_date_close_approach": -1381829460000,
            "relative_velocity": {
                "kilometers_per_second": "7.3025145582",
                "kilometers_per_hour": "26289.0524096178",
                "miles_per_hour": "16334.9948152984"
            },
            "miss_distance": {
                "astronomical": "0.7609282966",
                "lunar": "296.0011073774",
                "kilometers": "113833252.394088242",
                "miles": "70732703.1186600596"
            },
            "orbiting_body": "Juptr"
        },
        {
            "close_approach_date": "2003-01-18",
            "close_approach_date_full": "2003-Jan-18 12:37",
            "epoch_date_close_approach": 1042893420000,
            "relative_velocity": {
                "kilometers_per_second": "16.7601207332",
                "kilometers_per_hour": "60336.4346394689",
                "miles_per_hour": "37490.7140680633"
            },
            "miss_distance": {
                "astronomical": "0.2011896726",
                "lunar": "78.2627826414",
                "kilometers": "30097546.486957362",
                "miles": "18701748.1754091156"
            },
            "orbiting_body": "Earth"
        },
        {
            "close_approach_date": "2021-04-21",
            "close_approach_date_full": "2021-Apr-21 14:02",
            "epoch_date_close_approach": 1619013720000,
            "relative_velocity": {
                "kilometers_per_second": "12.0619927323",
                "kilometers_per_hour": "43423.1738362426",
                "miles_per_hour": "26981.4715428586"
            },
            "miss_distance": {
                "astronomical": "1.5167537247",
                "lunar": "590.0171989083",
                "kilometers": "226903126.529686389",
                "miles": "140991064.9829906082"
            },
            "orbiting_body": "Juptr"
        },
        {
            "close_approach_date": "2032-12-08",
            "close_approach_date_full": "2032-Dec-08 04:08",
            "epoch_date_close_approach": 1986091680000,
            "relative_velocity": {
                "kilometers_per_second": "8.6366188354",
                "kilometers_per_hour": "31091.8278073147",
                "miles_per_hour": "19319.2526728284"
            },
            "miss_distance": {
                "astronomical": "0.7191519573",
                "lunar": "279.7501113897",
                "kilometers": "107583601.018410951",
                "miles": "66849349.8272990838"
            },
            "orbiting_body": "Juptr"
        }
    ],
    "orbital_data": {
        "orbit_id": "16",
        "orbit_determination_date": "2017-04-06 09:14:28",
        "first_observation_date": "2003-01-01",
        "last_observation_date": "2003-03-29",
        "data_arc_in_days": 87,
        "observations_used": 55,
        "orbit_uncertainty": "6",
        "minimum_orbit_intersection": ".192974",
        "jupiter_tisserand_invariant": "2.735",
        "epoch_osculation": "2459000.5",
        "eccentricity": ".649981810446431",
        "semi_major_axis": "3.156175716647174",
        "inclination": "23.4201639033926",
        "ascending_node_longitude": "110.4149356543527",
        "orbital_period": "2048.048268956195",
        "perihelion_distance": "1.104718910253782",
        "perihelion_argument": "39.39304114146429",
        "aphelion_distance": "5.207632523040566",
        "perihelion_time": "2458806.172063420937",
        "mean_anomaly": "34.15840252833362",
        "mean_motion": ".1757771071399001",
        "equinox": "J2000",
        "orbit_class": {
            "orbit_class_type": "AMO",
            "orbit_class_description": "Near-Earth asteroid orbits similar to that of 1221 Amor",
            "orbit_class_range": "1.017 AU < q (perihelion) < 1.3 AU"
        }
    },
    "is_sentry_object": false
}